Id,Name,Bid_Id__c,Street_Address__c,Floor_Suite_Apt__c,Boro__c,City__c,State__c,ZipCode__c,BBL__c,latitude,longitude,BcwID__c,GeoLocation__Latitude__s,GeoLocation__Longitude__s,BIC or Not?
0013d000009SEWGAA4,OASIS GRILL & BAR,BCW Assigned:WC0037;Reassign:BW3392,3111 103 STREET,,Queens,EAST ELMHURST,New York,11369,4016900001,40.761187,-73.866204,8817ac93-3edc-4a7f-aad3-b47a2a409ed9,40.761047,-73.866186,Non-BIC
001cs000000xUKEAA2,24U016 MOSAIC PRE K,BCW Assigned:BW0554,4616 76 STREET,,Queens,ELMHURST,New York,11373,4015290073,40.73978,-73.888447,CR-430962,40.73978,-73.888447,BIC
001cs000000xUKwAAM,3K Center Corona,BCW Assigned:BW0572,104-78 ROOSEVELT AVENUE,,Queens,CORONA,New York,11368,4019840034,40.750483,-73.859065,LiveXYZ-59c116a97b2a3677ef7b4b9c,40.750526,-73.858935,Non-BIC
001cs000000xUTiAAM,MW DU CHRIS REALTY,BCW Assigned:WC0420;Reassign:BW3612,10213 NORTHERN BOULEVARD,,Queens,CORONA,New York,11368,4016970038,40.757743,-73.866045,CR-543979,40.757743,-73.866045,BIC
001cs000000xUTwAAM,My Little Foot Prints Day Care Corp,BCW Assigned:BW0719,100-03 39 AVENUE,,Queens,CORONA,New York,11368,4017667501,40.750068,-73.865548,LiveXYZ-59c116be7b2a3677ef7ba9df,40.750068,-73.865548,Non-BIC
001cs000000xUUwAAM,NA & Partners Building Consultants Corp,BCW Assigned:BW0739,576 WOODWARD AVENUE,,Queens,RIDGEWOOD,New York,11385,4034070038,40.706454,-73.908535,LiveXYZ-5a68d5578e86b50004a53239,40.706454,-73.908535,Non-BIC
001cs000000xUYEAA2,Above All,BCW Assigned:BA0198;Reassign:BW3078,86-15 65 DRIVE,,Queens,REGO PARK,New York,11374,4031330097,40.720267,-73.862516,LiveXYZ-5ab55d1135d6ce0004d06377,40.720267,-73.862516,Non-BIC
001cs000000xUiGAAU,ACCURATE AUTO GLASS AND MIRROR,BCW Assigned:BW0520,5000 GRAND AVENUE,,Queens,MASPETH,New York,11378,4026110130,40.717461,-73.919119,License_Application-447505,40.717461,-73.919119,Non-BIC
001cs000000xUkUAAU,AIR CANADA,,LAGUARDIA AIRPORT,,Queens,EAST ELMHURST,New York,11369,4009260001,40.766654,-73.886178,CR-393572,40.774421,-73.877294,BIC
001cs000000xUoxAAE,New York Plumbing,BCW Assigned:BW0608,109-25 CORONA AVENUE,,Queens,CORONA,New York,11368,4020100066,40.741903,-73.853219,CR-523286,40.741903,-73.853219,BIC
001cs000000xUqXAAU,Noctua Diem Recovery and Wellness,BCW Assigned:BW0643,62-18 68 AVENUE,,Queens,RIDGEWOOD,New York,11385,4036260036,40.705581,-73.894582,LiveXYZ-5b3ac47c7579e80003409fac,40.705581,-73.894582,Non-BIC
001cs000000xUqwAAE,North Star Dental Care,BCW Assigned:BW0641,40-36 82 STREET,,Queens,ELMHURST,New York,11373,4014920022,40.746615,-73.883867,LiveXYZ-59c116cb7b2a3677ef7c00a8,40.746615,-73.883867,Non-BIC
001cs000000xUukAAE,Amadeus,BCW Assigned:WC0431;Reassign:BW3617,7951 ALBION AVENUE,,Queens,ELMHURST,New York,11373,4015360120,40.739408,-73.884374,LiveXYZ-59c117177b2a3677ef7d77df,40.739408,-73.884374,Non-BIC
001cs000000xUuoAAE,Amaru Pisco Bar,BCW Assigned:WC0433;Reassign:BW3619,84-13 NORTHERN BOULEVARD,,Queens,JACKSON HEIGHTS,New York,11372,4014140041,40.75596,-73.883006,LiveXYZ-59c116997b2a3677ef7ae643,40.75596,-73.883006,Non-BIC
001cs000000xUxXAAU,NY CAROUSEL ENTERTAINMENT,BCW Assigned:BA0196;Reassign:BW3077,8030 PARK LANE,,Queens,KEW GARDENS,New York,11415,4033122000,40.710803,-73.835447,License_Application-503250,40.710803,-73.835447,Non-BIC
001cs000000xV2vAAE,AMAZON-DBK4,BCW Assigned:BA0203,5515 GRAND AVENUE,,Queens,MASPETH,New York,11378,4026100336,40.719128,-73.913752,CR-295226,40.719128,-73.913752,BIC
001cs000000xV3NAAU,American Legion - Maspeth Post 783,BCW Assigned:BW0813,66-28 GRAND AVENUE,,Queens,MASPETH,New York,11378,4027740024,40.724509,-73.897698,LiveXYZ-59c1173a7b2a3677ef7e0d99,40.724509,-73.897698,Non-BIC
001cs000000xV3OAAU,American Legion Continental Post 1425,BCW Assigned:BA0207;Reassign:BW3084,10715 METROPOLITAN AVENUE,,Queens,FOREST HILLS,New York,11375,4032770001,40.709758,-73.84556,LiveXYZ-59c1172c7b2a3677ef7dbad2,40.709758,-73.84556,Non-BIC
001cs000000xV52AAE,ANGEL'S LAUNDROMAT,BCW Assigned:BA0212;Reassign:BW3085,9218 ROOSEVELT AVENUE,,Queens,JACKSON HEIGHTS,New York,11372,4015500020,40.748508,-73.874422,License_Application-404860,40.748532,-73.873863,Non-BIC
001cs000000xV5eAAE,Anthony Tranchina  General Contracting Corp.,BCW Assigned:BW0829,79-72 COOPER AVENUE,,Queens,RIDGEWOOD,New York,11385,4038040006,40.708814,-73.870775,LiveXYZ-59c117617b2a3677ef7eaf37,40.708814,-73.870775,Non-BIC
001cs000000xV8JAAU,Oueens Beer Factory,BCW Assigned:WC0528;Reassign:BW3669,86-13 NORTHERN BOULEVARD,,Queens,JACKSON HEIGHTS,New York,11372,4014160041,40.756162,-73.881107,CR-50717,40.756162,-73.881107,BIC
001cs000000xVCaAAM,Apostolic Christian Church Nazarean,BCW Assigned:BA0235;Reassign:BW3097,5911 67 AVENUE,,Queens,RIDGEWOOD,New York,11385,4035020045,40.70459,-73.9014,LiveXYZ-59c114e07b2a3677ef71d4ec,40.70459,-73.9014,Non-BIC
001cs000000xVH2AAM,PANICARIAN BROTHERHOOD OF AMER,BCW Assigned:WC0565;Reassign:BW3696,8722 52 AVENUE,,Queens,ELMHURST,New York,11373,4018380001,40.737857,-73.875918,CR-544539,40.737857,-73.875918,BIC
001cs000000xVHmAAM,Park City Swim Club,BCW Assigned:WC0578;Reassign:Removed,98-00 62 DRIVE,,Queens,REGO PARK,New York,11374,4020860050,40.732665,-73.860405,LiveXYZ-5b4392704342d700038383b8,40.73287,-73.859806,Non-BIC
001cs000000xVIIAA2,Party Perfection,BCW Assigned:BA0249;Reassign:BW3106,5936 GRAND AVENUE,,Queens,MASPETH,New York,11378,4026970009,40.720699,-73.907246,LiveXYZ-5c06dd8688ba3000014058c3,40.720699,-73.907246,Non-BIC
001cs000000xVJiAAM,ARCH TELECOM,BCW Assigned:WC0594;Reassign:BW3715,8616 QUEENS BOULEVARD,,Queens,ELMHURST,New York,11373,4028510029,40.736181,-73.877336,DCA-368718,40.736181,-73.877336,Non-BIC
001cs000000xVLSAA2,Aster Electric Inc,BCW Assigned:BA0267,16-29 STEPHEN STREET,,Queens,RIDGEWOOD,New York,11385,4035520094,40.69641,-73.903579,LiveXYZ-59c112dd7b2a3677ef67b53b,40.69641,-73.903579,Non-BIC
001cs000000xVW4AAM,AU BON PAIN,,LAGUARDIA AIRPORT,,Queens,EAST ELMHURST,New York,11369,4009260001,40.766654,-73.886178,FSE_NRFPE-235553,40.774421,-73.877294,Non-BIC
001cs000000xVWxAAM,"AVIS RENT A CAR SYSTEM, INC.",BCW Assigned:WC0704;Reassign:BW3777,25 BOWERY BAY BOULEVARD,,Queens,LAGUARDIA AIRPORT,New York,11371,4009260001,40.766654,-73.886178,CR-499218,40.769076,-73.886564,BIC
001cs000000xVfkAAE,Bar Freda,BCW Assigned:BA0236;Reassign:BW3098,801 SENECA AVENUE,,Queens,RIDGEWOOD,New York,11385,4034630012,40.701503,-73.905271,CR-108435,40.701503,-73.905271,BIC
001cs000000xVx6AAE,Biserica Adventista Romna,BCW Assigned:BW1123,65-02 CENTRAL AVENUE,,Queens,RIDGEWOOD,New York,11385,4036760001,40.702258,-73.890555,LiveXYZ-59c117607b2a3677ef7ea570,40.702258,-73.890555,Non-BIC
001cs000000xVx7AAE,Biserica Ortodoxa Romana,BCW Assigned:BW1124,75-27 67 DRIVE,,Queens,MIDDLE VILLAGE,New York,11379,4037740048,40.71165,-73.876317,LiveXYZ-59c1174c7b2a3677ef7e6f1c,40.71165,-73.876317,Non-BIC
001cs000000xVx8AAE,"BISOUX MARKET, WORLD BEAN",,LAGUARDIA AIRPORT,,Queens,EAST ELMHURST,New York,11369,4009260001,40.766654,-73.886178,FSE_NRFPE-235554,40.774421,-73.877294,Non-BIC
001cs000000xVxrAAE,BLOSSOM KITCHEN & BATHS,BCW Assigned:BA0301,52-15 FLUSHING AVENUE,,Queens,MASPETH,New York,11378,4026110350,40.714792,-73.913898,CR-163777,40.714792,-73.913898,BIC
001cs000000xW1SAAU,Queens County Republican Oarty Headquarters,BCW Assigned:BW1182,71-20 MYRTLE AVENUE,,Queens,RIDGEWOOD,New York,11385,4037090031,40.701954,-73.879328,LiveXYZ-59c1175f7b2a3677ef7ea3e1,40.701954,-73.879328,Non-BIC
001cs000000xW4PAAU,Boxing,BCW Assigned:BW1209,69-32 MYRTLE AVENUE,,Queens,RIDGEWOOD,New York,11385,4037050008,40.701775,-73.881528,LiveXYZ-59c1175f7b2a3677ef7ea330,40.701775,-73.881528,Non-BIC
001cs000000xW5MAAU,Brigid Pharmacy,BCW Assigned:BA0324,37-05 83 STREET,,Queens,JACKSON HEIGHTS,New York,11372,4014710001,40.749744,-73.883219,LiveXYZ-59c1169e7b2a3677ef7b0b80,40.7497,-73.883233,Non-BIC
001cs000000xW6fAAE,Bukharian Rabbinical Council Of America,BCW Assigned:WC0790;Reassign:BW3828,96-3 69 AVENUE,,Queens,FOREST HILLS,New York,11375,4032000038,40.716941,-73.852278,LiveXYZ-5ab5439035d6ce0004d00ca8,40.716974,-73.852256,Non-BIC
001cs000000xWFSAA2,Radiant Church,BCW Assigned:WC0819;Reassign:Removed,60-45 ELIOT AVENUE,,Queens,MASPETH,New York,11378,4027350068,40.713688,-73.903414,LiveXYZ-59c117597b2a3677ef7e88d9,40.713688,-73.903414,Non-BIC
001cs000000xWFoAAM,RAICES CORONA NEIGHBORHOOD SENIOR CENTER,BCW Assigned:BW1272,10724 CORONA AVENUE,,Queens,CORONA,New York,11368,4019420053,40.743312,-73.85545,FSE_NRFPE-254493,40.743312,-73.85545,Non-BIC
001cs000000xWH0AAM,RCC STAFFING SOLUTION USA,BCW Assigned:WC0840;Reassign:BW3857,8216 ROOSEVELT AVENUE,,Queens,JACKSON HEIGHTS,New York,11372,4014930003,40.74745,-73.884024,DCA-368597,40.747578,-73.883262,Non-BIC
001cs000000xWK6AAM,Calvary Bible Church,BCW Assigned:BW1350,74-15 MYRTLE AVENUE,,Queens,RIDGEWOOD,New York,11385,4038240043,40.702615,-73.873849,LiveXYZ-59c117607b2a3677ef7ea788,40.702615,-73.873849,Non-BIC
001cs000000xWKxAAM,Cardio Intenso Yimi,BCW Assigned:BW1367,47-16 JUNCTION BOULEVARD,,Queens,CORONA,New York,11368,4016040041,40.742843,-73.867609,LiveXYZ-59c117237b2a3677ef7da4bb,40.742843,-73.867609,Non-BIC
001cs000000xWP7AAM,Carthcart Rail,BCW Assigned:BA0381,68-01 OTTO ROAD,,Queens,RIDGEWOOD,New York,11385,4036670650,40.7086125,-73.8907933,CR-425898,40.707585,-73.88954,BIC
001cs000000xWR0AAM,Centro Christiano,BCW Assigned:BW1478,102-56 43 AVENUE,,Queens,CORONA,New York,11368,4019780028,40.747638,-73.860886,LiveXYZ-59c116bf7b2a3677ef7bafe0,40.747638,-73.860886,Non-BIC
001cs000000xWYrAAM,Chaser McGees,BCW Assigned:BW1578,6065 FLUSHING AVENUE,,Queens,MASPETH,New York,11378,4026980146,40.720329,-73.905446,LiveXYZ-59c1173b7b2a3677ef7e1320,40.720329,-73.905446,Non-BIC
001cs000000xWf4AAE,R-WAY MOVING & STORAGE INC.,BCW Assigned:BW1257,5946 64 STREET,,Queens,MASPETH,New York,11378,4027550050,40.718887,-73.9006,CR-499429,40.718887,-73.9006,BIC
001cs000000xWgSAAU,SAINT JOAN OF ARC SCHOOL2,BCW Assigned:BA0341,35-27 82 STREET,,Queens,JACKSON HEIGHTS,New York,11372,4014560001,40.751721,-73.884002,CR-430633,40.751268,-73.884454,BIC
001cs000000xWmWAAU,Clothing Store,BCW Assigned:WC0905;Reassign:BW3899,33-37 108 STREET,,Queens,CORONA,New York,11368,4017230032,40.756671,-73.860622,LiveXYZ-59c116b77b2a3677ef7b824c,40.756671,-73.860622,Non-BIC
001cs000000xWmbAAE,Club Cultural Dominicano,BCW Assigned:BW1393,41-19 108 STREET,,Queens,CORONA,New York,11368,4019970066,40.749567,-73.857984,CR-424431,40.749496,-73.857952,BIC
001cs000000xWmfAAE,Club Trentino Inc.,BCW Assigned:BA0368;Reassign:BW3152,1694 GATES AVENUE,,Queens,RIDGEWOOD,New York,11385,4034480039,40.701968,-73.909594,LiveXYZ-59c111827b2a3677ef604a8f,40.701968,-73.909594,Non-BIC
001cs000000xWnEAAU,Collective Academy,BCW Assigned:BW1424,40-04 73 STREET,,Queens,WOODSIDE,New York,11377,4013040044,40.746539,-73.892435,LiveXYZ-59c113f67b2a3677ef6e414e,40.746539,-73.892435,Non-BIC
001cs000000xWrgAAE,Sandra's Pizza,BCW Assigned:BW1487,41-06 JUNCTION BOULEVARD,,Queens,CORONA,New York,11368,4015980008,40.747222,-73.868618,LiveXYZ-59c117327b2a3677ef7dd3e6,40.747222,-73.868618,Non-BIC
001cs000000xWtPAAU,SEAS designs,BCW Assigned:BW1532,43-23 91 PLACE,,Queens,ELMHURST,New York,11373,4016000130,40.742803,-73.873863,LiveXYZ-59c117227b2a3677ef7da18f,40.742803,-73.873863,Non-BIC
001cs000000xWuGAAU,Sephardic Jewish Center,BCW Assigned:BA0403,67-67 108 STREET,,Queens,FOREST HILLS,New York,11375,4021780001,40.727251,-73.846443,LiveXYZ-5ab02513581efb0004bb24d2,40.727251,-73.846443,Non-BIC
001cs000000xWzeAAE,Corona Congregational Church,BCW Assigned:WC1009;Reassign:Removed,102-18 34 AVENUE,,Queens,CORONA,New York,11368,4017360006,40.755722,-73.865998,LiveXYZ-5bc8cf284b968d00039f3de3,40.755596,-73.865649,Non-BIC
001cs000000xX4hAAE,"Shalom Realty, L.L.C.",BCW Assigned:BW1626,52-10 108 STREET,,Queens,CORONA,New York,11368,4019430057,40.742924,-73.854916,LiveXYZ-59c117257b2a3677ef7daae1,40.742924,-73.854916,Non-BIC
001cs000000xX53AAE,Shaw AME Zion Church,BCW Assigned:BA0427;Reassign:BW3179,100-05 34 AVENUE,,Queens,CORONA,New York,11368,4017150045,40.755705,-73.867828,LiveXYZ-5b3e56959ef34a0003e104c8,40.755705,-73.867828,Non-BIC
001cs000000xX6IAAU,Shreehari Convenience Inc.,BCW Assigned:BW1649,3761 82 STREET,,Queens,JACKSON HEIGHTS,New York,11372,4014700045,40.747787,-73.883666,LiveXYZ-59c1169d7b2a3677ef7b06fb,40.748002,-73.883861,Non-BIC
001cs000000xX6eAAE,SIEB DISTRIBUTORS,BCW Assigned:BA0429,418 SENECA AVENUE,,Queens,RIDGEWOOD,New York,11385,4034290031,40.706299,-73.913826,NYS Ag retail food stores-340906,40.706299,-73.913826,Non-BIC
001cs000000xXAsAAM,COTTO MARKET-GATE C30,,LAGUARDIA AIRPORT,,Queens,EAST ELMHURST,New York,11369,4009260001,40.766654,-73.886178,FSE_NRFPE-235562,40.774421,-73.877294,Non-BIC
001cs000000xXE6AAM,CUSTOM BURGERS PAT LA FRIEDA,,LAGUARDIA AIRPORT,,Queens,EAST ELMHURST,New York,11369,4009260001,40.766654,-73.886178,FSE_NRFPE-235558,40.774421,-73.877294,Non-BIC
001cs000000xXIrAAM,Skin Care Clinic,BCW Assigned:WC1092;Reassign:BW4024,87-15 37 AVENUE,,Queens,JACKSON HEIGHTS,New York,11372,4014610035,40.750426,-73.879128,LiveXYZ-59c1169c7b2a3677ef7afcea,40.750426,-73.879128,Non-BIC
001cs000000xXJIAA2,Skyly,BCW Assigned:WC1104;Reassign:BW4029,91-17 37 AVENUE,,Queens,JACKSON HEIGHTS,New York,11372,4014650037,40.75082,-73.875244,LiveXYZ-59c1169b7b2a3677ef7af984,40.750806,-73.875371,Non-BIC
001cs000000xXJbAAM,Smart Electric Services Inc.,BCW Assigned:BW1765,6226 MYRTLE AVENUE,,Queens,RIDGEWOOD,New York,11385,4035930014,40.70086,-73.892443,LiveXYZ-59c1175d7b2a3677ef7e9d8b,40.70086,-73.892433,Non-BIC
001cs000000xXJoAAM,Smile Savvy Dental,BCW Assigned:BA0456,93-30 QUEENS BOULEVARD,,Queens,REGO PARK,New York,11374,4030780085,40.731295,-73.86656,LiveXYZ-59c116ee7b2a3677ef7cab5f,40.731085,-73.86599,Non-BIC
001cs000000xXK1AAM,SMP Microblading,BCW Assigned:WC1115;Reassign:BW4038,65-05 COOPER AVENUE,,Queens,RIDGEWOOD,New York,11385,4036000078,40.698719,-73.889032,LiveXYZ-5ade4202fa63eb000490ec92,40.698719,-73.889032,Non-BIC
001cs000000xXKNAA2,Societa Concordia Partanna Inc.,BCW Assigned:BW1802,66-23 FOREST AVENUE,,Queens,RIDGEWOOD,New York,11385,4034990012,40.707073,-73.903048,LiveXYZ-59c114e07b2a3677ef71d525,40.707073,-73.903048,Non-BIC
001cs000000xXKYAA2,Soho Furniture,BCW Assigned:BW1812,91-20 CORONA AVENUE,,Queens,ELMHURST,New York,11373,4018480007,40.742352,-73.872795,LiveXYZ-59c117227b2a3677ef7da3d5,40.742352,-73.872795,Non-BIC
001cs000000xXKrAAM,Solution Realty,BCW Assigned:WC1128;Reassign:BW4045,35-50 73 STREET,,Queens,JACKSON HEIGHTS,New York,11372,4012720031,40.749416,-73.893083,LiveXYZ-5a985c0a4f37ef0004d10da0,40.749416,-73.893083,Non-BIC
001cs000000xXLaAAM,SP ONE SERVICES,BCW Assigned:BW1817,6746 80 STREET,,Queens,MIDDLE VILLAGE,New York,11379,4037810043,40.712002,-73.871504,CR-501996,40.712002,-73.871504,BIC
001cs000000xXOwAAM,D. MOBIL CORPORATION,BCW Assigned:BW1871,7008 FOREST AVENUE,,Queens,RIDGEWOOD,New York,11385,4034760013,40.700607,-73.900454,DCA-367557,40.700826,-73.90045,Non-BIC
001cs000000xXQuAAM,De Masters Of Security,BCW Assigned:BA0500;Reassign:BW3213,83-10 GRAND AVENUE,,Queens,ELMHURST,New York,11373,4029020005,40.733306,-73.883793,LiveXYZ-59c117387b2a3677ef7e036e,40.733306,-73.883793,Non-BIC
001cs000000xXRqAAM,DELICIOUS WOK,BCW Assigned:BW1922,5952 SUMMERFIELD STREET,,Queens,RIDGEWOOD,New York,11385,4035890029,40.700387,-73.896794,CR-504576,40.700387,-73.896794,BIC
001cs000000xXTuAAM,St. Johns Evangelical Lutheran Church,BCW Assigned:BW1947,88-24 MYRTLE AVENUE,,Queens,RIDGEWOOD,New York,11385,4038690045,40.702722,-73.857777,LiveXYZ-5b2c118e5ce0c000032f76a2,40.702722,-73.857777,Non-BIC
001cs000000xXXpAAM,Divine Savior,BCW Assigned:BW2025,72-02 MYRTLE AVENUE,,Queens,RIDGEWOOD,New York,11385,4037110010,40.702043,-73.878058,LiveXYZ-59c1175f7b2a3677ef7ea41b,40.702043,-73.878058,Non-BIC
001cs000000xXaKAAU,Sugar N Coal,BCW Assigned:WC1042;Reassign:BW3989,63-42 WOODHAVEN BOULEVARD,,Queens,REGO PARK,New York,11374,4029990028,40.723181,-73.868596,CR-458462,40.723392,-73.868369,BIC
001cs000000xXjhAAE,DR ARTHUR MIKHAYLOV,BCW Assigned:BA0453;Reassign:BW3194,9815 HORACE HARDING EXPRESSWAY,,Queens,CORONA,New York,11368,4019180097,40.735553,-73.860955,CR-432750,40.735553,-73.860955,BIC
001cs000000xXk4AAE,Dr Denise Granda - Guilbert,BCW Assigned:BW1787,6 STATION SQUARE,,Queens,FOREST HILLS,New York,11375,4032540020,40.719018,-73.844788,CR-509032,40.718927,-73.844745,BIC
001cs000000xXlsAAE,DR. ANDREW INSARDI,BCW Assigned:BW1832,6035 69 STREET,,Queens,MASPETH,New York,11378,4028370041,40.720685,-73.891859,CR-499837,40.720685,-73.891859,BIC
001cs000000xXmNAAU,Sweetory,BCW Assigned:WC1148;Reassign:BW4060,71-28 ROOSEVELT AVENUE,,Queens,JACKSON HEIGHTS,New York,11372,4013030011,40.746466,-73.89386,CR-458557,40.746466,-73.89386,BIC
001cs000000xXnjAAE,TAGLIARE PIZZA DELTA TERMINAL,,LAGUARDIA AIRPORT,,Queens,EAST ELMHURST,New York,11369,4009260001,40.766654,-73.886178,FSE_NRFPE-235555,40.774421,-73.877294,Non-BIC
001cs000000xXnuAAE,"TALEB, MOHAMMED FUAD",,10411 NORTHERN BOULEVARD,,Queens,CORONA,New York,11368,4016997501,40.758031,-73.863875,License_Application-385284,40.75771,-73.864421,Non-BIC
001cs000000xXnzAAE,Talitha Koum Mission Church,BCW Assigned:WC1158;Reassign:Removed,76-11 WOODSIDE AVENUE,,Queens,ELMHURST,New York,11373,4014960041,40.743601,-73.888415,LiveXYZ-59c114667b2a3677ef6f9e2d,40.743601,-73.888415,Non-BIC
001cs000000xXtkAAE,Dr. S Milman Dentist,BCW Assigned:WC1207;Reassign:BW4089,6340 WETHEROLE STREET,,Queens,REGO PARK,New York,11374,4030940031,40.728188,-73.864542,LiveXYZ-59c116ee7b2a3677ef7cae96,40.728188,-73.864542,Non-BIC
001cs000000xXwWAAU,TEMPLE OF ZHAO SAN LINGON,BCW Assigned:BW2009,10207 44 AVENUE,,Queens,CORONA,New York,11368,4019780059,40.746808,-73.86218,CR-467685,40.746808,-73.86218,BIC
001cs000000xXxlAAE,The Church Center of Prayer,BCW Assigned:BW2020,47-07 104 STREET,,Queens,CORONA,New York,11368,4019917501,40.745559,-73.859335,LiveXYZ-59c117257b2a3677ef7dab83,40.745504,-73.859303,Non-BIC
001cs000000xY1zAAE,EAGLES CAFE & BAR,BCW Assigned:BW2057,6869 FRESH POND ROAD,,Queens,RIDGEWOOD,New York,11385,4036280051,40.703427,-73.895303,CR-502993,40.703427,-73.895303,BIC
001cs000000xY71AAE,The Message,BCW Assigned:BA0569;Reassign:BW3236,487 ONDERDONK AVENUE,,Queens,RIDGEWOOD,New York,11385,4034040002,40.706539,-73.911323,LiveXYZ-59c112d17b2a3677ef676877,40.706539,-73.911323,Non-BIC
001cs000000xY7RAAU,THE QUEENS MOVEMENT,BCW Assigned:WC1312;Reassign:BW4160,6119 FRESH POND ROAD,,Queens,MIDDLE VILLAGE,New York,11379,4027630056,40.714068,-73.900834,CR-515831,40.714068,-73.900834,BIC
001cs000000xYD9AAM,Eglise Wesleyenne Jerusalem,BCW Assigned:BW2129,34-35 96 STREET,,Queens,CORONA,New York,11368,4017300039,40.75398,-73.871546,LiveXYZ-59c116a77b2a3677ef7b3f35,40.75398,-73.871546,Non-BIC
001cs000000xYEFAA2,"El Manto Restaurant PURE GREEN RECYCLING LLC,2023Q3,",BCW Assigned:WC1374,100-15 ASTORIA BOULEVARD,,Queens,EAST ELMHURST,New York,11369,4016580014,40.762101,-73.868646,CR-236018,40.762101,-73.868646,BIC
001cs000000xYIYAA2,Treat Me Right,BCW Assigned:BA0620;Reassign:BW3254,66-03 FRESH POND ROAD,,Queens,RIDGEWOOD,New York,11385,4036120010,40.708941,-73.898201,LiveXYZ-59c117557b2a3677ef7e7c6b,40.708941,-73.898201,Non-BIC
001cs000000xYIyAAM,Triple A. Tax & Accounting Services,BCW Assigned:WC1431;Reassign:BW4233,87-05 GRAND AVENUE,,Queens,ELMHURST,New York,11373,4024770020,40.736449,-73.878414,LiveXYZ-5bdb62cdbe514a0003f5803a,40.736449,-73.878414,Non-BIC
001cs000000xYMYAA2,Eliot Rx Pharmacy,BCW Assigned:WC1469;Reassign:BW4264,8218 ELIOT AVENUE,,Queens,MIDDLE VILLAGE,New York,11379,4029410151,40.725858,-73.877059,LiveXYZ-59c117647b2a3677ef7ebf2d,40.725935,-73.876893,Non-BIC
001cs000000xYMjAAM,Elite Dance Academy,BCW Assigned:BW2267,79-76 COOPER AVENUE,,Queens,RIDGEWOOD,New York,11385,4038040008,40.708842,-73.870706,LiveXYZ-59c117617b2a3677ef7eaf22,40.708864,-73.870641,Non-BIC
001cs000000xYNoAAM,U.S.A. RECYCLING TRANSPORTATION,BCW Assigned:BW2292,7018 73 PLACE,,Queens,RIDGEWOOD,New York,11385,4036660014,40.706071,-73.877167,DCA-367593,40.706071,-73.877167,Non-BIC
001cs000000xYOjAAM,United Pentecostal Church International,BCW Assigned:BW2307,91-15 CORONA AVENUE,,Queens,ELMHURST,New York,11373,4016000116,40.742602,-73.872979,LiveXYZ-59c117227b2a3677ef7da208,40.742602,-73.872979,Non-BIC
001cs000000xYQvAAM,Elmhurst Islamic Center,BCW Assigned:BA0651;Reassign:BW3265,87-07 55 AVENUE,,Queens,ELMHURST,New York,11373,4028520034,40.735206,-73.8768,LiveXYZ-643b28ef1a8ee10001ca989b,40.735206,-73.8768,Non-BIC
001cs000000xYShAAM,EQUIP SERVICES,BCW Assigned:BW2344,6733 CENTRAL AVENUE,,Queens,RIDGEWOOD,New York,11385,4036530035,40.703547,-73.886246,DCA-380705,40.703572,-73.886026,Non-BIC
001cs000000xYTVAA2,Eternal Love Baptist Church,BCW Assigned:BW2360,5407 99 STREET,,Queens,CORONA,New York,11368,4019090034,40.739415,-73.860431,LiveXYZ-59c117377b2a3677ef7df375,40.739415,-73.860431,Non-BIC
001cs000000xYYoAAM,Evangelical Church Of Revival,BCW Assigned:BW2423,578 ONDERDONK AVENUE,,Queens,RIDGEWOOD,New York,11385,4034380029,40.705264,-73.909604,LiveXYZ-59c112cc7b2a3677ef675fdb,40.705264,-73.909604,Non-BIC
001cs000000xYYpAAM,EVANGELICAL LUTHERAN CHURCH OF OUR SAVIOUR,BCW Assigned:WC1576;Reassign:Removed,64-33 WOODHAVEN BOULEVARD,,Queens,REGO PARK,New York,11374,4031360004,40.720825,-73.8656,Childcare-269067,40.720825,-73.8656,Non-BIC
001cs000000xYdAAAU,VERIZON,BCW Assigned:BA0592;Reassign:BW3244,107-15 70 ROAD,,Queens,FOREST HILLS,New York,11375,4032380014,40.7213406,-73.8457531,CR-476031,40.721121,-73.845725,BIC
001cs000000xYhPAAU,FABIAN CONSTRUCTION CO.,BCW Assigned:WC1407;Reassign:BW4217,5905 59 DRIVE,,Queens,MASPETH,New York,11378,4026540096,40.717524,-73.908253,DCA-379968,40.717524,-73.908253,Non-BIC
001cs000000xYhmAAE,Faith Bible Church Of Corona,BCW Assigned:BW2192,99-14 43 AVENUE,,Queens,CORONA,New York,11368,4016280031,40.74663,-73.864284,LiveXYZ-59c117267b2a3677ef7db061,40.74663,-73.864284,Non-BIC
001cs000000xYmDAAU,Fastrackids,BCW Assigned:WC1458;Reassign:Removed,98-00 62 DRIVE,,Queens,REGO PARK,New York,11374,4020860050,40.732665,-73.860405,LiveXYZ-5b4392b04342d70003838459,40.73287,-73.859806,Non-BIC
001cs000000xYmaAAE,Federici,BCW Assigned:BW2262,50-02 108 STREET,,Queens,CORONA,New York,11368,4019940012,40.744454,-73.855707,LiveXYZ-59c117257b2a3677ef7dad83,40.744454,-73.855707,Non-BIC
001cs000000xYuMAAU,First Priority Multiservice,BCW Assigned:WC1535;Reassign:BW4308,40-06 ITHACA STREET,,Queens,ELMHURST,New York,11373,4015060011,40.746286,-73.883358,LiveXYZ-59c116cd7b2a3677ef7c0800,40.746211,-73.883153,Non-BIC
001cs000000xYuOAAU,First Romanian Baptist Church,BCW Assigned:BW2369,64-15 FOREST AVENUE,,Queens,RIDGEWOOD,New York,11385,4034960001,40.708649,-73.903977,LiveXYZ-59c117587b2a3677ef7e878c,40.708649,-73.903977,Non-BIC
001cs000000xYv3AAE,Flanders Field Post No. 150,BCW Assigned:BW2377,5111 108 STREET,,Queens,CORONA,New York,11368,4020070095,40.743621,-73.854926,LiveXYZ-59c117257b2a3677ef7dadc3,40.743621,-73.854926,Non-BIC
001cs000000xYveAAE,Womens Medical Office,BCW Assigned:BW2381,70-19 37 AVENUE,,Queens,JACKSON HEIGHTS,New York,11372,4012700062,40.748789,-73.894705,CR-165999,40.748789,-73.894705,BIC
001cs000000xYwvAAE,XPRESCHECK LGA,BCW Assigned:WC1556;Reassign:BW4320,81 MARINE AIR TERMINAL,,Queens,LAGUARDIA AIRPORT,New York,11371,4009260001,40.766654,-73.886178,CR-432955,40.773565,-73.885766,BIC
001cs000000xZ4WAAU,ZYCH CONTRACTING,BCW Assigned:WC1615;Reassign:BW4354,1872 HARMAN STREET,,Queens,RIDGEWOOD,New York,11385,4034040025,40.707258,-73.911286,CR-541667,40.707307,-73.911264,BIC
001cs000000xZ7AAAU,Forest Hills Orthopedic Group,BCW Assigned:BA0699,69-67 108 STREET,SIDE ENTR.,Queens,FOREST HILLS,New York,11375,4022210001,40.723274,-73.844439,CR-447559,40.723274,-73.844439,BIC
001cs000000xZ7TAAU,FOREST MEDICINE,BCW Assigned:BW2482,6808A FOREST AVENUE,,Queens,RIDGEWOOD,New York,11385,4034830020,40.70341,-73.901532,CR-500450,40.703429,-73.901539,BIC
001cs000000xZ8DAAU,FOY MECHANICAL,BCW Assigned:BW2488,5876 57 DRIVE,,Queens,MASPETH,New York,11378,4026750129,40.721653,-73.909171,CR-499168,40.721653,-73.909171,BIC
001cs000000xZ8tAAE,Fresh Pond Auto Repair,BCW Assigned:BW2494,61-50 62 ROAD,,Queens,MIDDLE VILLAGE,New York,11379,4027700017,40.713213,-73.899887,LiveXYZ-59c117457b2a3677ef7e5551,40.713213,-73.899887,Non-BIC
001cs000000xZ9pAAE,FRITO LAY #JNL042877,BCW Assigned:BA0704;Reassign:BW3280,1867 FLUSHING AVENUE,,Queens,RIDGEWOOD,New York,11385,4033930062,40.711554,-73.919797,CR-470110,40.712155,-73.919731,BIC
001cs000000xZ9tAAE,FROMER EYE CENTERS,BCW Assigned:BA0705;Reassign:BW3281,11020 71 ROAD,,Queens,FOREST HILLS,New York,11375,4022350004,40.721611,-73.840879,CR-528210,40.721611,-73.840879,BIC
001cs000000xZAqAAM,"G&B Medical, L.L.C.",BCW Assigned:BA0713;Reassign:BW3284,9108 ELMHURST AVENUE,,Queens,JACKSON HEIGHTS,New York,11372,4014790061,40.749623,-73.875402,LiveXYZ-59c116d27b2a3677ef7c1d63,40.749623,-73.875402,Non-BIC
001cs000000xZDLAA2,Genyukan Dojo,BCW Assigned:BA0725,63-44 SAUNDERS STREET,,Queens,REGO PARK,New York,11374,4030810119,40.729469,-73.863601,LiveXYZ-6421936219e40f0001eb79b7,40.729469,-73.863601,Non-BIC
001cs000000xZHfAAM,Grace Community Church,BCW Assigned:BA0742;Reassign:BW3293,31-55 92 STREET,,Queens,EAST ELMHURST,New York,11369,4014040045,40.758893,-73.87633,LiveXYZ-59c1169b7b2a3677ef7af51f,40.758893,-73.87633,Non-BIC
001cs000000xZLXAA2,Grand Hills Realty Corp,BCW Assigned:WC1731;Reassign:BW4415,74-26 WOODSIDE AVENUE,,Queens,ELMHURST,New York,11373,4015190024,40.743119,-73.889889,LiveXYZ-5c8aa7a918bc9d00013ffada,40.743119,-73.889889,Non-BIC
001cs000000xZNGAA2,Grupo De Oracion Ayuno Y Estudio Biblico,BCW Assigned:WC1755;Reassign:BW4430,42-06 79 STREET,,Queens,ELMHURST,New York,11373,4015240010,40.74364,-73.886308,LiveXYZ-5c8aab047ff38f0001911652,40.743533,-73.886272,Non-BIC
001cs000000xZVxAAM,HJ MOBILE CORP,,10419 NORTHERN BOULEVARD,,Queens,CORONA,New York,11368,4016997501,40.758031,-73.863875,CR-466734,40.75771,-73.864366,BIC
001cs000000xZVyAAM,SCRAP KING METRO AND IRON,BCW Assigned:BA0790,4626 METROPOLITAN AVENUE,,Queens,RIDGEWOOD,New York,11385,4033930019,40.713725,-73.922546,DCA-365022,40.713725,-73.922546,Non-BIC
001cs000000xZZtAAM,Homelegant,BCW Assigned:WC1837;Reassign:BW4479,63-08 WOODHAVEN BOULEVARD,,Queens,REGO PARK,New York,11374,4029980020,40.724068,-73.869331,LiveXYZ-59c117657b2a3677ef7ec0cc,40.724068,-73.869331,Non-BIC
001cs000000xZaeAAE,Houman Bidarmaghz Martial Arts Center,BCW Assigned:BW2512,72-5 66 STREET,,Queens,RIDGEWOOD,New York,11385,4036990028,40.701254,-73.887769,LiveXYZ-5b56052e547f7c0003c5335d,40.701158,-73.887776,Non-BIC
001cs000000xZeOAAU,Iglesia Adventista Del Septimo Dia,BCW Assigned:BW2584,40-34 102 STREET,,Queens,CORONA,New York,11368,4016100055,40.748701,-73.863797,LiveXYZ-59c116c07b2a3677ef7bb6d0,40.748701,-73.863797,Non-BIC
001cs000000xZeQAAU,Iglesia Bautista Getsemani,BCW Assigned:BA0730;Reassign:BW3290,87-20 ELMHURST AVENUE,,Queens,ELMHURST,New York,11373,4015570010,40.744804,-73.87824,LiveXYZ-59c117347b2a3677ef7ddbd3,40.744804,-73.87824,Non-BIC
001cs000000xZeUAAU,Iglesia Christiana Cielos Abiertos,BCW Assigned:BW2591,102-05 32 AVENUE,,Queens,EAST ELMHURST,New York,11369,4016890044,40.759514,-73.866619,LiveXYZ-59c116a67b2a3677ef7b39c6,40.759514,-73.866619,Non-BIC
001cs000000xZecAAE,Iglesia De Dios,BCW Assigned:BW2569,45-22 74 STREET,,Queens,ELMHURST,New York,11373,4013520098,40.740067,-73.890034,LiveXYZ-5bd8c6383f9f9f0003d3699c,40.740067,-73.890034,Non-BIC
001cs000000xZelAAE,Iglesia Pentecostal Nuevo Pacto,BCW Assigned:BW2578,96-16 CORONA AVENUE,,Queens,CORONA,New York,11368,4018780009,40.742203,-73.866874,LiveXYZ-59c117237b2a3677ef7da66d,40.742203,-73.866874,Non-BIC
001cs000000xZenAAE,Iglesia Pentecostal Unida Hispana Inc.,BCW Assigned:BW2582,35-47 97 STREET,,Queens,CORONA,New York,11368,4017380041,40.752263,-73.870015,LiveXYZ-59c116b67b2a3677ef7b7c20,40.752263,-73.870015,Non-BIC
001cs000000xZeoAAE,Iglesia Pentecostal Unida New York,BCW Assigned:BW2583,106-10 CORONA AVENUE,,Queens,CORONA,New York,11368,4019350023,40.74375,-73.856842,LiveXYZ-59c117257b2a3677ef7daa14,40.74375,-73.856842,Non-BIC
001cs000000xZfoAAE,Indonesian Pentecostal Family Church,BCW Assigned:BA0736,4119 76 STREET,,Queens,ELMHURST,New York,11373,4014960066,40.744814,-73.888991,LiveXYZ-59c114657b2a3677ef6f9cae,40.744814,-73.888991,Non-BIC
001cs000000xZgbAAE,INTERNATIONAL CHILDRENS SCHOOL,BCW Assigned:WC1705;Reassign:BW4404,5727 PENROD STREET,,Queens,CORONA,New York,11368,4019520054,40.739673,-73.856024,Child and Adult Care Food Program Participation-325377,40.739673,-73.856024,Non-BIC
001cs000000xZugAAE,JHELC,BCW Assigned:BW2780,10917 46 AVENUE,,Queens,CORONA,New York,11368,4020010052,40.748131,-73.854873,Childcare-268270,40.748131,-73.854873,Non-BIC
001cs000000xZxRAAU,JR. GEORGE STREET,BCW Assigned:BA0801;Reassign:BW3310,1637 GEORGE STREET,,Queens,RIDGEWOOD,New York,11385,4035510089,40.696932,-73.903842,CR-487925,40.696932,-73.903842,BIC
001cs000000xa1zAAA,Kharchu Ugyen Yoebar Center Of New York Inc.,BCW Assigned:BA0019,83-21 57 AVENUE,,Queens,ELMHURST,New York,11373,4029050056,40.730189,-73.879659,LiveXYZ-59c117387b2a3677ef7e035a,40.730189,-73.879659,Non-BIC
001cs000000xa2LAAQ,KIM & CHO CARPENTRY,,10415 NORTHERN BOULEVARD,,Queens,CORONA,New York,11368,4016997501,40.758031,-73.863875,License_Application-385302,40.75771,-73.864392,Non-BIC
001cs000000xa9cAAA,La Catrina,BCW Assigned:BA0037,52-75 65 PLACE,,Queens,MASPETH,New York,11378,4023820001,40.731721,-73.899967,CR-183347,40.731515,-73.899971,BIC
001cs000000xa9yAAA,La Ficina,BCW Assigned:BA0038;Reassign:BW3019,93-13 ROOSEVELT AVENUE,,Queens,JACKSON HEIGHTS,New York,11372,4014810046,40.748893,-73.873155,LiveXYZ-59c116247b2a3677ef78ce02,40.748893,-73.873155,Non-BIC
001cs000000xaDGAAY,Law Office Effie L. Cho,BCW Assigned:BW0184,60-04 FRESH POND ROAD,,Queens,MASPETH,New York,11378,4027430037,40.716816,-73.901941,LiveXYZ-59c117457b2a3677ef7e5268,40.716816,-73.901941,Non-BIC
001cs000000xaDOAAY,"Law Office of Joseph G. Canepa, Pllc",BCW Assigned:WC0124;Reassign:Removed,37-38 75 STREET,,Queens,JACKSON HEIGHTS,New York,11372,4012850058,40.747932,-73.890877,LiveXYZ-5ab682e73dcc180004a071de,40.747932,-73.890877,Non-BIC
001cs000000xaDeAAI,"Lawrence Hirsch, DDS",BCW Assigned:WC0120;Reassign:BW3437,85-04 63 DRIVE,,Queens,REGO PARK,New York,11374,4031157501,40.722147,-73.866769,LiveXYZ-59c117657b2a3677ef7ec29f,40.722471,-73.867021,Non-BIC
001cs000000xaEsAAI,Lendi Construction LLC,BCW Assigned:BW0214,78-04 67 DRIVE,,Queens,MIDDLE VILLAGE,New York,11379,4037780008,40.711666,-73.875123,LiveXYZ-644a9a986ae8ed00014c4d3f,40.711666,-73.875123,Non-BIC
001cs000000xaIoAAI,LGP - PACKER ACCOUNT,,LAGUARDIA AIRPORT,,Queens,Queens,New York,11371,4009260001,40.766654,-73.886178,CR-514595,40.774421,-73.877294,BIC
001cs000000xaJFAAY,Liberty Tax,BCW Assigned:BW0250,92-36 QUEENS BOULEVARD,,Queens,REGO PARK,New York,11374,4030750023,40.732021,-73.867825,LiveXYZ-59c116ee7b2a3677ef7caac5,40.732166,-73.867875,Non-BIC
001cs000000xaKBAAY,Ling Shan Temple,BCW Assigned:BW0264,43-18 91 PLACE,,Queens,ELMHURST,New York,11373,4015860023,40.742826,-73.874086,LiveXYZ-59c117227b2a3677ef7da17c,40.742826,-73.874086,Non-BIC
001cs000000xaLwAAI,Lorenz Latin Dance Studio,BCW Assigned:BA0083,65-52 MYRTLE AVENUE,,Queens,RIDGEWOOD,New York,11385,4036980027,40.701175,-73.888703,LiveXYZ-59c1175e7b2a3677ef7e9f3e,40.701175,-73.888703,Non-BIC
001cs000000xaMlAAI,Lotus Lounge & Grill,BCW Assigned:BW0316,66-48 MYRTLE AVENUE,,Queens,RIDGEWOOD,New York,11385,4037000023,40.701354,-73.886557,LiveXYZ-59c1175e7b2a3677ef7ea03c,40.701354,-73.886557,Non-BIC
001cs000000xaT2AAI,M. Delman M.D.,BCW Assigned:WC0261,9508 QUEENS BOULEVARD,,Queens,REGO PARK,New York,11374,4030800006,40.730584,-73.864505,LiveXYZ-59c116ee7b2a3677ef7cab8c,40.730584,-73.864505,Non-BIC
001cs000000xaTbAAI,Mad Mike Ink LLC,BCW Assigned:BA0111,54-10 FLUSHING AVENUE,,Queens,MASPETH,New York,11378,4026350004,40.715013,-73.913101,LiveXYZ-5ad78b57a5d29d00049f8871,40.715013,-73.913101,Non-BIC
001cs000000xaVuAAI,Marantha Romanian Baptist Church,BCW Assigned:BW0433,61-16 68 AVENUE,,Queens,RIDGEWOOD,New York,11385,4036250034,40.705321,-73.895711,LiveXYZ-59c117567b2a3677ef7e7f00,40.705321,-73.895711,Non-BIC
001cs000000xaezAAA,Menonita Tabernaculo Evangelistico,BCW Assigned:BW0221,562 WOODWARD AVENUE,,Queens,RIDGEWOOD,New York,11385,4034060040,40.706721,-73.908993,LiveXYZ-59c112d47b2a3677ef677fa2,40.706721,-73.908993,Non-BIC
001cs000000xakeAAA,Microvision Realty LLC,BCW Assigned:BW0267,66-83 FOREST AVENUE,,Queens,RIDGEWOOD,New York,11385,4035020013,40.70503,-73.901922,LiveXYZ-59c114e07b2a3677ef71d5c3,40.70503,-73.901922,Non-BIC
001cs000000xcBfAAI,"George J. Nashak Jr., Gregory J. Brown, Deborah M. Garibaldi",BCW Assigned:BW0470,75-19 MYRTLE AVENUE,,Queens,RIDGEWOOD,New York,11385,4038250035,40.702701,-73.872824,LiveXYZ-59c117617b2a3677ef7eabfa,40.702701,-73.872824,Non-BIC
001cs000000xcBjAAI,Jewish Community Center Of Queens- Congregation Zichron K'Doshim,BCW Assigned:WC0293;Reassign:Removed,99-07 66 AVENUE,,Queens,REGO PARK,New York,11374,4021160073,40.728513,-73.854533,LiveXYZ-59c117027b2a3677ef7d26b9,40.728513,-73.854533,Non-BIC
001cs000004ok8bAAA,DR. MARIA TORRES,BCW Assigned:BA0806;Reassign:BW3313,78-11 35 AVENUE,STE. 1E,Queens,JACKSON HEIGHTS,New York,11372,4012650033,40.751604,-73.887958,,40.751604,-73.887958,Non-BIC
001cs0000057L6UAAU,DR. CHARLENE S. BERKMAN,BCW Assigned:BA0807;Reassign:BW3314,111-09 76 ROAD,APT. # A5,Queens,FOREST HILLS,New York,11375,4033400052,40.715949,-73.836672,,40.715949,-73.836672,Non-BIC
001cs0000057ko1AAA,DR. GEORGE BABITSKY,BCW Assigned:BW2871,98-76 QUEENS BOULEVARD,,Queens,REGO PARK,New York,11374,4031597501,40.727285,-73.855744,,40.727285,-73.855744,Non-BIC
001cs0000057lP7AAI,DR. NEIL GANZ,BCW Assigned:BW2872,98-76 QUEENS BOULEVARD,1F,Queens,REGO PARK,New York,11374,4031597501,40.727285,-73.855744,,40.727285,-73.855744,Non-BIC
001cs000008XgKLAA0,Jai Sang Ma,BCW Assigned:WC1850;Reassign:BW4487,8140 BROADWAY,,Queens,ELMHURST,New York,11373,4015277502,40.742788,-73.883061,Fulcrum-33fb8be8-80b6-4f54-99a0-ef246d50257d,40.742835,-73.883022,Non-BIC
001cs000008XgL9AAK,Coffee Tea Organic Plus,BCW Assigned:WC1860;Reassign:BW4493,79-06 37 AVENUE,,Queens,JACKSON HEIGHTS,New York,11372,4012900001,40.749387,-73.886266,Fulcrum-94b8c7ca-d528-4160-ac41-40ccb754487a,40.749363,-73.886843,Non-BIC
001cs000008Y7fYAAS,Jackson Development Center,BCW Assigned:BA0821;Reassign:BW3324,35-29 82 STREET,,Queens,JACKSON HEIGHTS,New York,11372,4014560001,40.751721,-73.884002,Fulcrum-0a7b075b-4c79-4894-9232-f6a7e33911c6,40.751447,-73.884609,Non-BIC
001cs000008Y7fjAAC,Centro Espiritual La Pirámide,BCW Assigned:WC1876;Reassign:BW4506,86-10 ROOSEVELT AVENUE,,Queens,JACKSON HEIGHTS,New York,11372,4015020006,40.747932,-73.879938,Fulcrum-092ff0f2-898a-430e-9787-45edf6d08b1e,40.747932,-73.879938,Non-BIC
001cs000008Y7fxAAC,La Doctora Del Amor,BCW Assigned:WC1885;Reassign:BW4512,40-18 ELBERTSON STREET,,Queens,ELMHURST,New York,11373,4015020020,40.747659,-73.879343,Fulcrum-5dfdac13-9ac9-4acb-bfee-c94db9a0ae1d,40.747659,-73.879343,Non-BIC
001cs000008Y7gkAAC,Sazon Chilango,BCW Assigned:BW2906,4809 94 STREET,,Queens,ELMHURST,New York,11373,4018770072,40.74203,-73.869678,Fulcrum-d4d62658-7564-4ebe-9dbc-89da171d45e9,40.742071,-73.869696,Non-BIC
001cs000008Y7gqAAC,Ridgewood-Glendale-Middlewood Little Leauge,BCW Assigned:BA0824;Reassign:BW3326,8017 78 AVENUE,,Queens,RIDGEWOOD,New York,11385,4038190003,40.705528,-73.867939,Fulcrum-bee2536d-7e48-4773-9129-e3c872d00b89,40.705528,-73.867939,Non-BIC
001cs000008Y7h4AAC,Ling Yan Shan Buddhist Temple of New York Inc,BCW Assigned:BW2916,85-14 GRAND AVENUE,,Queens,ELMHURST,New York,11373,4028750015,40.73508,-73.881559,Fulcrum-116e9f54-86c0-4650-93a3-dbe25e49c70f,40.73508,-73.881559,Non-BIC
001cs000008Y7hMAAS,AB TaxPro Inc,BCW Assigned:WC1902;Reassign:BW4524,86-16 QUEENS BOULEVARD,Suite 208,Queens,ELMHURST,New York,11373,4028510029,40.736181,-73.877336,Fulcrum-5fe26e4f-1e23-4692-933d-0d861be4752d,40.736181,-73.877336,Non-BIC
001cs000008Y7hgAAC,Watch Guarrd 24/7,BCW Assigned:BW2922,7114 MYRTLE AVENUE,,Queens,RIDGEWOOD,New York,11385,4037090028,40.701932,-73.879548,Fulcrum-3f566e01-f699-4769-9473-c7c9ffff278f,40.701932,-73.879548,Non-BIC
001cs000008Y7i8AAC,USA JW Trading INC.,BCW Assigned:BW2929,5000 GRAND AVENUE,,Queens,MASPETH,New York,11378,4026110130,40.717461,-73.919119,Fulcrum-fcbb5728-9469-447f-b870-0940ec0a16b7,40.717461,-73.919119,Non-BIC
001cs000008Y7iTAAS,Construction Corp,BCW Assigned:BW2941,1818 BLEECKER STREET,,Queens,RIDGEWOOD,New York,11385,4034350021,40.705361,-73.911014,Fulcrum-822dd13e-d7ff-485b-a801-66eb5591ef4a,40.705361,-73.911014,Non-BIC
001cs000008Y7ifAAC,Collision Pros,BCW Assigned:BA0827,5714 58 STREET,,Queens,MASPETH,New York,11378,4026700045,40.722657,-73.91207,Fulcrum-1fbd1e76-bb37-491e-9d4d-3cad28b151e1,40.722657,-73.91207,Non-BIC
001cs000008Y7igAAC,Kongtaighong Food Group,BCW Assigned:BW2934,5637 59 STREET,,Queens,MASPETH,New York,11378,4026900005,40.724251,-73.908547,Fulcrum-7a16f0df-8a22-4849-a909-3253d3a31f93,40.724251,-73.908547,Non-BIC
001cs000008Y7ivAAC,Vernaza Gates Inc,BCW Assigned:BW2943,58-90 56 STREET,,Queens,MASPETH,New York,11378,4026300225,40.718049,-73.912996,Fulcrum-04930c13-4e20-4fab-9504-cab6919991cd,40.717912,-73.91292,Non-BIC
001cs000008Y7j0AAC,Velocity plumbing & heating Inc.,BCW Assigned:BA0831,58-04 57 ROAD,,Queens,MASPETH,New York,11378,4026730052,40.722242,-73.911872,Fulcrum-45e6cb6a-1a63-45c9-b48b-01742421ab8a,40.722242,-73.911872,Non-BIC
001cs000008Y7jPAAS,America New York Ri Wang Food Group Co. Ltd.,BCW Assigned:BA0838,58-02 59 STREET,,Queens,MASPETH,New York,11378,4026800047,40.720974,-73.908465,Fulcrum-5548952e-a1d3-45ec-a483-2816c819d459,40.720974,-73.908465,Non-BIC
001cs000008Y7jgAAC,Little Genuis Daycare,BCW Assigned:BW2952,45-19 104 STREET,,Queens,CORONA,New York,11368,4019890082,40.746528,-73.859831,Fulcrum-11ad5a25-f9a0-456e-a159-9b1ff2df8792,40.746528,-73.859831,Non-BIC
001cs000008Y7k3AAC,Medical dental office,BCW Assigned:BA0840;Reassign:BW3333,65-04 GRAND AVENUE,,Queens,MASPETH,New York,11378,4027520002,40.72316,-73.900341,Fulcrum-8e3e6c86-d3a0-4d7b-8d78-6660f6b1fce3,40.72316,-73.900341,Non-BIC
001cs000008Y7k5AAC,Congregación Cristiana/ ESPERANZE de VIDA,BCW Assigned:BW2961,10322 CORONA AVENUE,,Queens,CORONA,New York,11368,4019290167,40.743931,-73.859014,Fulcrum-a8c169a1-760f-4b89-b7fe-c1df1fef1014,40.743931,-73.859014,Non-BIC
001cs000008Y7mNAAS,The apostolic church international,BCW Assigned:BW2988,54-06 100 STREET,,Queens,CORONA,New York,11368,4019090032,40.739492,-73.86047,Fulcrum-8c82a0f0-0bd6-4cbc-9946-8931259b3a4b,40.739694,-73.860174,Non-BIC
001cs000008Y7mVAAS,Tibetan Gift Shop,BCW Assigned:BA0854;Reassign:BW3340,72-19 ROOSEVELT AVENUE,,Queens,JACKSON HEIGHTS,New York,11372,4012830092,40.746825,-73.892828,Fulcrum-e31f570f-6d8d-40ff-9f03-e4050a099904,40.746825,-73.892828,Non-BIC
001cs000008Y7mkAAC,Lefrak city Jewish center,BCW Assigned:BA0852,97-15 HORACE HARDING EXPRESSWAY,,Queens,CORONA,New York,11368,4019180105,40.735444,-73.861316,Fulcrum-afd8f4e7-d9d7-4aff-8a8e-2fbf3f16776e,40.735444,-73.861316,Non-BIC
001cs000008Y7n9AAC,Dr. Majorie Baptiste,BCW Assigned:BA0855;Reassign:BW3341,7031A 108 STREET,Suite 2,Queens,FOREST HILLS,New York,11375,4022230001,40.72223,-73.843799,Fulcrum-856db3fa-f7db-4e2c-aa45-df560ae29dbe,40.721851,-73.843595,Non-BIC
001cs000008Y7oaAAC,Un Nuevo Tiempo Bajo Su Gloria,BCW Assigned:WC2050;Reassign:BW4634,502 WOODWARD AVENUE,,Queens,RIDGEWOOD,New York,11385,4034050037,40.707323,-73.910024,Fulcrum-079a53c9-cef4-46a3-8f00-c7102fe3ade6,40.707323,-73.910024,Non-BIC
001cs000008Y7rmAAC,Morse and Mauro Realty,BCW Assigned:BA0865;Reassign:BW3350,10529 METROPOLITAN AVENUE,,Queens,FOREST HILLS,New York,11375,4032600044,40.710007,-73.847352,Fulcrum-038b762e-5af3-4fa2-9224-e036eb381f83,40.710007,-73.847352,Non-BIC
001cs00000NBE8rAAH,La Gata Galoso Bakery,BCW Assigned:WC0091;Reassign:BW3420,81-20 ROOSEVELT AVENUE,,Queens,JACKSON HEIGHTS,New York,11372,4014920010,40.747497,-73.884046,CR-506433,40.747497,-73.884046,BIC
